EAGLET-I                
1 43790U 18099AJ  26068.68676861  .00006017  00000+0  35262-3 0  9994
2 43790  97.4369 120.9821 0010486 336.8524  23.2233 15.12108144397298
STARLINK-3785           
1 52375U 22045AW  26068.55737081 -.00001535  00000+0 -78385-4 0  9993
2 52375  53.2185 189.7172 0001051  86.4871 273.6241 15.08832218215904
